     2.100          NAVIGATION                              RINEX VERSION / TYPE
fic2rin                                 08/31/2017 00:31:28 PGM / RUN BY / DATE
                                                            END OF HEADER
32 17  8 30  4  0  0.0 -.491726677865D-03 -.625277607469D-11  .000000000000D+00
     .100000000000D+02  .112812500000D+02  .478627079596D-08 -.194723286211D+01
     .599771738052D-06  .141835608520D-02  .822730362415D-05  .515375463676D+04
     .273600000000D+06  .949949026108D-07 -.206395157187D+01  .335276126862D-07
     .957587837457D+00  .218812500000D+03 -.253260082227D+01 -.807712215884D-08
    -.129291099779D-09  .100000000000D+01  .196400000000D+04  .000000000000D+00
     .240000000000D+01  .000000000000D+00  .931322574615D-09  .100000000000D+02
     .266406000000D+06  .400000000000D+01
 4 17  8 30  4  0  0.0  .176904723048D-04  .613908923697D-11  .000000000000D+00
     .360000000000D+02 -.555937500000D+02  .446197157331D-08 -.230857235641D+01
    -.281631946564D-05  .123118476477D-01  .592507421970D-05  .515366903687D+04
     .273600000000D+06  .260770320892D-07  .990940640495D+00 -.124797224998D-06
     .956792644928D+00  .262343750000D+03  .436302357150D+00 -.809998025383D-08
    -.964325882329D-11  .100000000000D+01  .196400000000D+04  .000000000000D+00
     .240000000000D+01  .630000000000D+02 -.558793544769D-08  .360000000000D+02
     .269106000000D+06  .400000000000D+01
14 17  8 30  3 59 44.0 -.822590664029D-04 -.102318153949D-11  .000000000000D+00
     .400000000000D+01  .142187500000D+02  .462340686917D-08 -.285503616367D+01
     .683590769768D-06  .936016079504D-02  .844337046146D-05  .515368764305D+04
     .273584000000D+06  .242143869400D-06 -.198003799397D+01 -.949949026108D-07
     .961577242855D+00  .214843750000D+03 -.194831313495D+01 -.788818571745D-08
    -.153934983439D-09  .100000000000D+01  .196400000000D+04  .000000000000D+00
     .240000000000D+01  .000000000000D+00 -.977888703346D-08  .400000000000D+01
     .271656000000D+06  .400000000000D+01
 9 17  8 30  3 59 44.0  .434066634625D-03  .659383658785D-11  .000000000000D+00
     .420000000000D+02  .287500000000D+01  .495627787744D-08 -.241506764604D+01
     .230967998505D-06  .756463385187D-03  .810436904430D-05  .515378343773D+04
     .273584000000D+06 -.931322574615D-08 -.206762117167D+01 -.111758708954D-07
     .953127403159D+00  .220500000000D+03  .191493939609D+01 -.814283918194D-08
    -.141434462742D-09  .100000000000D+01  .196400000000D+04  .000000000000D+00
     .240000000000D+01  .000000000000D+00  .931322574615D-09  .420000000000D+02
     .272376000000D+06  .400000000000D+01
 9 17  8 30  5 59 44.0  .434114132077D-03  .659383658785D-11  .000000000000D+00
     .450000000000D+02  .578125000000D+01  .489234664302D-08 -.136481051530D+01
     .344589352608D-06  .756633467972D-03  .827573239803D-05  .515378352928D+04
     .280784000000D+06  .204890966415D-07 -.206767968986D+01 -.130385160446D-07
     .953126521020D+00  .220656250000D+03  .191479924854D+01 -.811355224773D-08
    -.141077305007D-09  .100000000000D+01  .196400000000D+04  .000000000000D+00
     .240000000000D+01  .000000000000D+00  .931322574615D-09  .450000000000D+02
     .273606000000D+06  .400000000000D+01
14 17  8 30  5 59 44.0 -.822669826448D-04 -.102318153949D-11  .000000000000D+00
     .180000000000D+02  .146250000000D+02  .459626288137D-08 -.180488502720D+01
     .853091478348D-06  .936071679462D-02  .810250639915D-05  .515368664169D+04
     .280784000000D+06  .176951289177D-06 -.198009513262D+01  .838190317154D-07
     .961576713278D+00  .220250000000D+03 -.194829035000D+01 -.788068540504D-08
    -.557166065346D-10  .100000000000D+01  .196400000000D+04  .000000000000D+00
     .240000000000D+01  .000000000000D+00 -.977888703346D-08  .180000000000D+02
     .273606000000D+06  .400000000000D+01
 1 17  8 30  6  0  0.0  .556316226721D-04 -.454747350886D-12  .000000000000D+00
     .760000000000D+02 -.401562500000D+02  .413660087746D-08  .260357233404D+01
    -.210106372833D-05  .700037996285D-02  .911392271519D-05  .515368394470D+04
     .280800000000D+06 -.409781932831D-07  .213776166843D+01 -.577419996262D-07
     .968321103558D+00  .207093750000D+03  .613711406926D+00 -.780996817367D-08
     .245367363393D-09  .100000000000D+01  .196400000000D+04  .000000000000D+00
     .240000000000D+01  .000000000000D+00  .558793544769D-08  .760000000000D+02
     .273606000000D+06  .400000000000D+01
 2 17  8 30  6  0  0.0  .342354178429D-03 -.886757334229D-11  .000000000000D+00
     .630000000000D+02 -.502812500000D+02  .448804408791D-08  .298289220920D+01
    -.250339508057D-05  .170307586668D-01  .817328691483D-05  .515357462883D+04
     .280800000000D+06  .141561031342D-06  .208236473071D+01 -.158324837685D-06
     .947261066551D+00  .210593750000D+03 -.196044799214D+01 -.772996484121D-08
     .182507602174D-09  .100000000000D+01  .196400000000D+04  .000000000000D+00
     .340000000000D+01  .000000000000D+00 -.204890966415D-07  .630000000000D+02
     .273606000000D+06  .400000000000D+01
 3 17  8 30  6  0  0.0 -.733742490411D-04  .397903932026D-11  .000000000000D+00
     .210000000000D+02 -.403125000000D+01  .461769234542D-08  .171969172367D+01
    -.352039933205D-06  .931743532419D-03  .730529427528D-05  .515366581154D+04
     .280800000000D+06  .931322574615D-08 -.310305544882D+01  .000000000000D+00
     .960507149001D+00  .235437500000D+03  .369142629118D+00 -.805569269479D-08
     .192150860997D-09  .100000000000D+01  .196400000000D+04  .000000000000D+00
     .240000000000D+01  .000000000000D+00  .232830643654D-08  .210000000000D+02
     .273606000000D+06  .400000000000D+01
 4 17  8 30  6  0  0.0  .177347101271D-04  .613908923697D-11  .000000000000D+00
     .118000000000D+03 -.454687500000D+02  .455233248006D-08 -.125850691037D+01
    -.235252082348D-05  .123117188923D-01  .563077628613D-05  .515366641045D+04
     .280800000000D+06  .204890966415D-06  .990882738198D+00 -.165775418282D-06
     .956792255792D+00  .268843750000D+03  .436420402936D+00 -.816212569958D-08
    -.109647424398D-09  .100000000000D+01  .196400000000D+04  .000000000000D+00
     .240000000000D+01  .630000000000D+02 -.558793544769D-08  .118000000000D+03
     .273606000000D+06  .400000000000D+01
 5 17  8 30  6  0  0.0 -.313054770231D-04  .147792889038D-11  .000000000000D+00
     .890000000000D+02 -.337500000000D+01  .491377610707D-08 -.779887010133D+00
     .000000000000D+00  .519479962531D-02  .693835318089D-05  .515381328011D+04
     .280800000000D+06  .745058059692D-07 -.312116594162D+01  .335276126862D-07
     .947445597575D+00  .234250000000D+03  .586959638436D+00 -.825748681461D-08
     .247153152064D-09  .100000000000D+01  .196400000000D+04  .000000000000D+00
     .240000000000D+01  .000000000000D+00 -.107102096081D-07  .890000000000D+02
     .273606000000D+06  .400000000000D+01
 6 17  8 30  6  0  0.0  .393016729504D-03  .341060513165D-11  .000000000000D+00
     .800000000000D+02 -.418125000000D+02  .413731519293D-08  .273342637311D+01
    -.197999179363D-05  .584363006055D-03  .866688787937D-05  .515373799133D+04
     .280800000000D+06 -.279396772385D-07  .212939693107D+01 -.130385160446D-07
     .968074644286D+00  .217250000000D+03 -.108975971661D+01 -.780032491484D-08
     .190365072327D-09  .100000000000D+01  .196400000000D+04  .000000000000D+00
     .240000000000D+01  .000000000000D+00  .465661287308D-08  .800000000000D+02
     .273606000000D+06  .400000000000D+01
 7 17  8 30  6  0  0.0  .309235882014D-03 -.488853402203D-11  .000000000000D+00
     .980000000000D+02  .675312500000D+02  .461733518769D-08  .197642186236D+01
     .349059700966D-05  .110203057993D-01  .892020761967D-05  .515372858810D+04
     .280800000000D+06 -.290572643280D-06 -.988849375694D+00  .335276126862D-07
     .961142587950D+00  .210218750000D+03 -.256546379645D+01 -.807712215884D-08
    -.442875590403D-10  .100000000000D+01  .196400000000D+04  .000000000000D+00
     .340000000000D+01  .000000000000D+00 -.111758708954D-07  .980000000000D+02
     .273606000000D+06  .400000000000D+01
 8 17  8 30  6  0  0.0 -.716941431165D-04 -.136424205266D-11  .000000000000D+00
     .320000000000D+02 -.534062500000D+02  .428982154543D-08 -.975420184177D+00
    -.266730785370D-05  .256336235907D-02  .639818608761D-05  .515368464661D+04
     .280800000000D+06 -.596046447754D-07  .107387862320D+01  .167638063431D-07
     .967330529542D+00  .260687500000D+03 -.624098651940D+00 -.810426614664D-08
    -.137148569931D-09  .100000000000D+01  .196400000000D+04  .000000000000D+00
     .240000000000D+01  .000000000000D+00  .558793544769D-08  .320000000000D+02
     .273606000000D+06  .400000000000D+01
10 17  8 30  6  0  0.0  .512115657330D-04  .103455022327D-10  .000000000000D+00
     .600000000000D+01 -.865625000000D+01  .464805075283D-08  .546518870030D+00
    -.407919287682D-06  .271516572684D-02  .724382698536D-05  .515366868019D+04
     .280800000000D+06  .484287738800D-07 -.310670109187D+01  .633299350739D-07
     .960653522732D+00  .241218750000D+03 -.283181715801D+01 -.809176562595D-08
     .203222750758D-09  .100000000000D+01  .196400000000D+04  .000000000000D+00
     .240000000000D+01  .000000000000D+00  .186264514923D-08  .600000000000D+01
     .273606000000D+06  .400000000000D+01
11 17  8 30  6  0  0.0 -.712412409484D-03 -.238742359215D-11  .000000000000D+00
     .260000000000D+02 -.649375000000D+02  .556273171010D-08  .200328340530D+01
    -.345893204212D-05  .170720481547D-01  .741146504879D-05  .515372995186D+04
     .280800000000D+06  .329688191414D-06  .172879596027D+01 -.875443220139D-07
     .901807228988D+00  .199781250000D+03  .168504823044D+01 -.839249243814D-08
     .400016662300D-10  .100000000000D+01  .196400000000D+04  .000000000000D+00
     .240000000000D+01  .000000000000D+00 -.121071934700D-07  .260000000000D+02
     .273606000000D+06  .400000000000D+01
